start=new Date('2022-06-26T00:00:00.000Z').valueOf();
sats=[{"OBJECT_NAME":"STARLINK-2427","CLASSIFICATION_TYPE":"U","APOAPSIS":"548.353","MEAN_ANOMALY":"310.1462","ECCENTRICITY":"0.00016330","GP_ID":"206854710","MEAN_MOTION_DDOT":"0.0000000000000","MEAN_MOTION_DOT":"0.00000834","INCLINATION":"53.0530","SITE":"AFETR","REF_FRAME":"TEME","OBJECT_ID":"2021-018BC","COUNTRY_CODE":"US","SEMIMAJOR_AXIS":"6925.357","TLE_LINE1":"1 47837U 21018BC  22176.74546219  .00000834  00000-0  74894-4 0  9998","MEAN_ELEMENT_THEORY":"SGP4","OBJECT_TYPE":"PAYLOAD","TLE_LINE2":"2 47837  53.0530 185.2253 0001633  49.9670 310.1462 15.06397244 72963","ELEMENT_SET_NO":"999","MEAN_MOTION":"15.06397244","CENTER_NAME":"EARTH","DECAY_DATE":null,"FILE":"3502557","TIME_SYSTEM":"UTC","LAUNCH_DATE":"2021-03-11","PERIOD":"95.592","RCS_SIZE":"LARGE","NORAD_CAT_ID":"47837","EPOCH":"2022-06-25T17:53:27.933216","BSTAR":"0.00007489400000","EPHEMERIS_TYPE":"0","RA_OF_ASC_NODE":"185.2253","PERIAPSIS":"546.091","ARG_OF_PERICENTER":"49.9670","REV_AT_EPOCH":"7296"},{"EPHEMERIS_TYPE":"0","RA_OF_ASC_NODE":"206.9568","NORAD_CAT_ID":"47838","EPOCH":"2022-06-25T08:38:48.252480","BSTAR":"0.00000182130000","PERIAPSIS":"545.908","REV_AT_EPOCH":"7261","ARG_OF_PERICENTER":"47.0977","RCS_SIZE":"LARGE","LAUNCH_DATE":"2021-03-11","PERIOD":"95.592","TIME_SYSTEM":"UTC","DECAY_DATE":null,"FILE":"3502315","TLE_LINE2":"2 47838  53.0541 206.9568 0001909  47.0977 313.0172 15.06394672 72615","OBJECT_TYPE":"PAYLOAD","MEAN_MOTION":"15.06394672","CENTER_NAME":"EARTH","ELEMENT_SET_NO":"999","REF_FRAME":"TEME","COUNTRY_CODE":"US","SEMIMAJOR_AXIS":"6925.365","MEAN_ELEMENT_THEORY":"SGP4","TLE_LINE1":"1 47838U 21018BD  22176.36028070 -.00000255  00000-0  18213-5 0  9999","OBJECT_ID":"2021-018BD","MEAN_MOTION_DOT":"-0.00000255","SITE":"AFETR","INCLINATION":"53.0541","MEAN_ANOMALY":"313.0172","APOAPSIS":"548.552","MEAN_MOTION_DDOT":"0.0000000000000","ECCENTRICITY":"0.00019090","GP_ID":"206825059","OBJECT_NAME":"STARLINK-2429","CLASSIFICATION_TYPE":"U"},{"FILE":"3502557","DECAY_DATE":null,"MEAN_MOTION":"15.06398232","CENTER_NAME":"EARTH","ELEMENT_SET_NO":"999","TLE_LINE2":"2 47839  53.0535 175.3196 0001672  59.6841 300.4313 15.06398232 73109","OBJECT_TYPE":"PAYLOAD","ARG_OF_PERICENTER":"59.6841","PERIAPSIS":"546.061","REV_AT_EPOCH":"7310","EPHEMERIS_TYPE":"0","RA_OF_ASC_NODE":"175.3196","NORAD_CAT_ID":"47839","EPOCH":"2022-06-25T17:17:37.745664","BSTAR":"0.00007258400000","RCS_SIZE":"LARGE","LAUNCH_DATE":"2021-03-11","PERIOD":"95.592","TIME_SYSTEM":"UTC","MEAN_MOTION_DDOT":"0.0000000000000","ECCENTRICITY":"0.00016720","GP_ID":"206855212","MEAN_ANOMALY":"300.4313","APOAPSIS":"548.377","CLASSIFICATION_TYPE":"U","OBJECT_NAME":"STARLINK-2431","COUNTRY_CODE":"US","SEMIMAJOR_AXIS":"6925.354","MEAN_ELEMENT_THEORY":"SGP4","TLE_LINE1":"1 47839U 21018BE  22176.72057576  .00000800  00000-0  72584-4 0  9998","OBJECT_ID":"2021-018BE","REF_FRAME":"TEME","SITE":"AFETR","INCLINATION":"53.0535","MEAN_MOTION_DOT":"0.00000800"},{"BSTAR":"-0.00007524700000","NORAD_CAT_ID":"47840","EPOCH":"2022-06-25T17:32:14.096544","EPHEMERIS_TYPE":"0","RA_OF_ASC_NODE":"185.2995","REV_AT_EPOCH":"7295","PERIAPSIS":"546.003","ARG_OF_PERICENTER":"59.5910","PERIOD":"95.593","LAUNCH_DATE":"2021-03-11","TIME_SYSTEM":"UTC","RCS_SIZE":"LARGE","DECAY_DATE":null,"FILE":"3502557","OBJECT_TYPE":"PAYLOAD","TLE_LINE2":"2 47840  53.0553 185.2995 0001812  59.5910 300.5258 15.06385563 72954","ELEMENT_SET_NO":"999","CENTER_NAME":"EARTH","MEAN_MOTION":"15.06385563","REF_FRAME":"TEME","OBJECT_ID":"2021-018BF","MEAN_ELEMENT_THEORY":"SGP4","TLE_LINE1":"1 47840U 21018BF  22176.73071871 -.00001402  00000-0 -75247-4 0  9995","COUNTRY_CODE":"US","SEMIMAJOR_AXIS":"6925.393","MEAN_MOTION_DOT":"-0.00001402","INCLINATION":"53.0553","SITE":"AFETR","APOAPSIS":"548.513","MEAN_ANOMALY":"300.5258","GP_ID":"206853961","ECCENTRICITY":"0.00018120","MEAN_MOTION_DDOT":"0.0000000000000","OBJECT_NAME":"STARLINK-2432","CLASSIFICATION_TYPE":"U"},{"TLE_LINE2":"2 47841  53.0551 186.8015 0001525  73.6910 286.4246 15.06398884 72905","OBJECT_TYPE":"PAYLOAD","MEAN_MOTION":"15.06398884","CENTER_NAME":"EARTH","ELEMENT_SET_NO":"999","DECAY_DATE":null,"FILE":"3502315","RCS_SIZE":"LARGE","LAUNCH_DATE":"2021-03-11","PERIOD":"95.592","TIME_SYSTEM":"UTC","RA_OF_ASC_NODE":"186.8015","EPHEMERIS_TYPE":"0","EPOCH":"2022-06-25T09:29:13.019712","NORAD_CAT_ID":"47841","BSTAR":"0.00009090900000","PERIAPSIS":"546.161","REV_AT_EPOCH":"7290","ARG_OF_PERICENTER":"73.6910","OBJECT_NAME":"STARLINK-2433","CLASSIFICATION_TYPE":"U","MEAN_ANOMALY":"286.4246","APOAPSIS":"548.273","MEAN_MOTION_DDOT":"0.0000000000000","ECCENTRICITY":"0.00015250","GP_ID":"206824309","MEAN_MOTION_DOT":"0.00001073","SITE":"AFETR","INCLINATION":"53.0551","REF_FRAME":"TEME","COUNTRY_CODE":"US","SEMIMAJOR_AXIS":"6925.352","TLE_LINE1":"1 47841U 21018BG  22176.39528958  .00001073  00000-0  90909-4 0  9995","MEAN_ELEMENT_THEORY":"SGP4","OBJECT_ID":"2021-018BG"},{"OBJECT_TYPE":"PAYLOAD","TLE_LINE2":"2 47842  53.0538 216.2625 0001636  52.4302 307.6835 15.06399530 72559","ELEMENT_SET_NO":"999","MEAN_MOTION":"15.06399530","CENTER_NAME":"EARTH","DECAY_DATE":null,"FILE":"3502557","PERIOD":"95.592","LAUNCH_DATE":"2021-03-11","TIME_SYSTEM":"UTC","RCS_SIZE":"LARGE","EPOCH":"2022-06-25T12:20:23.733312","NORAD_CAT_ID":"47842","BSTAR":"0.00009710800000","RA_OF_ASC_NODE":"216.2625","EPHEMERIS_TYPE":"0","REV_AT_EPOCH":"7255","PERIAPSIS":"546.082","ARG_OF_PERICENTER":"52.4302","OBJECT_NAME":"STARLINK-2434","CLASSIFICATION_TYPE":"U","APOAPSIS":"548.348","MEAN_ANOMALY":"307.6835","ECCENTRICITY":"0.00016360","GP_ID":"206855461","MEAN_MOTION_DDOT":"0.0000000000000","MEAN_MOTION_DOT":"0.00001165","INCLINATION":"53.0538","SITE":"AFETR","REF_FRAME":"TEME","OBJECT_ID":"2021-018BH","SEMIMAJOR_AXIS":"6925.350","COUNTRY_CODE":"US","TLE_LINE1":"1 47842U 21018BH  22176.51416358  .00001165  00000-0  97108-4 0  9990","MEAN_ELEMENT_THEORY":"SGP4"},{"INCLINATION":"53.0537","SITE":"AFETR","MEAN_MOTION_DOT":"0.00001399","OBJECT_ID":"2021-018BJ","SEMIMAJOR_AXIS":"6925.356","COUNTRY_CODE":"US","TLE_LINE1":"1 47843U 21018BJ  22176.81871788  .00001399  00000-0  11279-3 0  9999","MEAN_ELEMENT_THEORY":"SGP4","REF_FRAME":"TEME","CLASSIFICATION_TYPE":"U","OBJECT_NAME":"STARLINK-2435","ECCENTRICITY":"0.00016580","GP_ID":"206831520","MEAN_MOTION_DDOT":"0.0000000000000","APOAPSIS":"548.369","MEAN_ANOMALY":"310.8256","LAUNCH_DATE":"2021-03-11","PERIOD":"95.592","TIME_SYSTEM":"UTC","RCS_SIZE":"LARGE","REV_AT_EPOCH":"7228","PERIAPSIS":"546.073","ARG_OF_PERICENTER":"49.2876","EPOCH":"2022-06-25T19:38:57.224832","NORAD_CAT_ID":"47843","BSTAR":"0.00011279000000","EPHEMERIS_TYPE":"0","RA_OF_ASC_NODE":"209.9035","ELEMENT_SET_NO":"999","MEAN_MOTION":"15.06397610","CENTER_NAME":"EARTH","OBJECT_TYPE":"PAYLOAD","TLE_LINE2":"2 47843  53.0537 209.9035 0001658  49.2876 310.8256 15.06397610 72287","FILE":"3502462","DECAY_DATE":null},{"FILE":"3502557","DECAY_DATE":null,"ELEMENT_SET_NO":"999","MEAN_MOTION":"15.06391363","CENTER_NAME":"EARTH","OBJECT_TYPE":"PAYLOAD","TLE_LINE2":"2 47844  53.0538 204.9102 0001667  63.4725 296.6435 15.06391363 72683","PERIAPSIS":"546.086","ARG_OF_PERICENTER":"63.4725","REV_AT_EPOCH":"7268","NORAD_CAT_ID":"47844","EPOCH":"2022-06-25T19:36:57.421728","BSTAR":"-0.00003197200000","EPHEMERIS_TYPE":"0","RA_OF_ASC_NODE":"204.9102","PERIOD":"95.593","LAUNCH_DATE":"2021-03-11","TIME_SYSTEM":"UTC","RCS_SIZE":"LARGE","ECCENTRICITY":"0.00016670","GP_ID":"206854461","MEAN_MOTION_DDOT":"0.0000000000000","APOAPSIS":"548.394","MEAN_ANOMALY":"296.6435","CLASSIFICATION_TYPE":"U","OBJECT_NAME":"STARLINK-2446","OBJECT_ID":"2021-018BK","COUNTRY_CODE":"US","SEMIMAJOR_AXIS":"6925.375","TLE_LINE1":"1 47844U 21018BK  22176.81733127 -.00000758  00000-0 -31972-4 0  9997","MEAN_ELEMENT_THEORY":"SGP4","REF_FRAME":"TEME","INCLINATION":"53.0538","SITE":"AFETR","MEAN_MOTION_DOT":"-0.00000758"},{"OBJECT_TYPE":"PAYLOAD","TLE_LINE2":"2 47845  53.0530 205.1230 0001820  50.0532 310.0616 15.06394370 72683","ELEMENT_SET_NO":"999","CENTER_NAME":"EARTH","MEAN_MOTION":"15.06394370","DECAY_DATE":null,"FILE":"3502557","PERIOD":"95.592","LAUNCH_DATE":"2021-03-11","TIME_SYSTEM":"UTC","RCS_SIZE":"LARGE","BSTAR":"-0.00000178820000","NORAD_CAT_ID":"47845","EPOCH":"2022-06-25T18:27:57.762720","RA_OF_ASC_NODE":"205.1230","EPHEMERIS_TYPE":"0","PERIAPSIS":"545.970","REV_AT_EPOCH":"7268","ARG_OF_PERICENTER":"50.0532","OBJECT_NAME":"STARLINK-2453","CLASSIFICATION_TYPE":"U","APOAPSIS":"548.491","MEAN_ANOMALY":"310.0616","GP_ID":"206854711","ECCENTRICITY":"0.00018200","MEAN_MOTION_DDOT":"0.0000000000000","MEAN_MOTION_DOT":"-0.00000308","INCLINATION":"53.0530","SITE":"AFETR","REF_FRAME":"TEME","OBJECT_ID":"2021-018BL","TLE_LINE1":"1 47845U 21018BL  22176.76941855 -.00000308  00000-0 -17882-5 0  9997","MEAN_ELEMENT_THEORY":"SGP4","COUNTRY_CODE":"US","SEMIMAJOR_AXIS":"6925.366"},{"TLE_LINE2":"2 47846  53.0544 206.9150 0001677  66.4010 293.7155 15.06395476 72673","OBJECT_TYPE":"PAYLOAD","MEAN_MOTION":"15.06395476","CENTER_NAME":"EARTH","ELEMENT_SET_NO":"999","DECAY_DATE":null,"FILE":"3502315","RCS_SIZE":"LARGE","LAUNCH_DATE":"2021-03-11","PERIOD":"95.592","TIME_SYSTEM":"UTC","EPHEMERIS_TYPE":"0","RA_OF_ASC_NODE":"206.9150","EPOCH":"2022-06-25T08:48:02.654496","NORAD_CAT_ID":"47846","BSTAR":"-0.00001010000000","PERIAPSIS":"546.066","REV_AT_EPOCH":"7267","ARG_OF_PERICENTER":"66.4010","OBJECT_NAME":"STARLINK-2456","CLASSIFICATION_TYPE":"U","MEAN_ANOMALY":"293.7155","APOAPSIS":"548.389","MEAN_MOTION_DDOT":"0.0000000000000","ECCENTRICITY":"0.00016770","GP_ID":"206825060","MEAN_MOTION_DOT":"-0.00000432","SITE":"AFETR","INCLINATION":"53.0544","REF_FRAME":"TEME","COUNTRY_CODE":"US","SEMIMAJOR_AXIS":"6925.362","TLE_LINE1":"1 47846U 21018BM  22176.36669739 -.00000432  00000-0 -10100-4 0  9995","MEAN_ELEMENT_THEORY":"SGP4","OBJECT_ID":"2021-018BM"}];
